{"type": "FeatureCollection", "features": [ {"type": "Feature", "properties": {"norad_id": 30160, "name": "FENGYUN 1C DEB", "group": "fengyun-1c-debris", "lat": -51.3159313865527, "lon": 107.71935037764413, "alt_km": 1205.623952989089, "timestamp": "2025-12-16T21:38:57.448737+00:00", "meta": {"OBJECT_NAME": "FENGYUN 1C DEB", "OBJECT_ID": "1999-025TR", "EPOCH": "2025-12-15T19:46:52.421376", "MEAN_MOTION": 13.42893977, "ECCENTRICITY": 0.03429405, "INCLINATION": 98.8863, "RA_OF_ASC_NODE": 298.0344, "ARG_OF_PERICENTER": 120.0272, "MEAN_ANOMALY": 300.4922, "EPHEMERIS_TYPE": 0, "CLASSIFICATION_TYPE": "U", "NORAD_CAT_ID": 30160, "ELEMENT_SET_NO": 999, "REV_AT_EPOCH": 92455, "BSTAR": 0.00086585969, "MEAN_MOTION_DOT": 6.65e-06, "MEAN_MOTION_DDOT": 0}, "tle": {"line1": "1 30160U 99025TR  25349.82421784  .00000665  00000+0  86586-3 0  9996", "line2": "2 30160  98.8863 298.0344 0342940 120.0272 300.4922 13.42893977924558"}}, "geometry": {"type": "Point", "coordinates": [107.71935037764413, -51.3159313865527]}}, {"type": "Feature", "properties": {"norad_id": 30161, "name": "FENGYUN 1C DEB", "group": "fengyun-1c-debris", "lat": -64.46344272595954, "lon": 135.6759109553181, "alt_km": 835.9049194032932, "timestamp": "2025-12-16T21:38:57.448747+00:00", "meta": {"OBJECT_NAME": "FENGYUN 1C DEB", "OBJECT_ID": "1999-025TS", "EPOCH": "2025-12-15T11:23:54.898944", "MEAN_MOTION": 13.49730229, "ECCENTRICITY": 0.03280847, "INCLINATION": 100.5054, "RA_OF_ASC_NODE": 337.0235, "ARG_OF_PERICENTER": 251.2811, "MEAN_ANOMALY": 264.3991, "EPHEMERIS_TYPE": 0, "CLASSIFICATION_TYPE": "U", "NORAD_CAT_ID": 30161, "ELEMENT_SET_NO": 999, "REV_AT_EPOCH": 92596, "BSTAR": 0.0016804602, "MEAN_MOTION_DOT": 1.434e-05, "MEAN_MOTION_DDOT": 0}, "tle": {"line1": "1 30161U 99025TS  25349.47494096  .00001434  00000+0  16805-2 0  9995", "line2": "2 30161 100.5054 337.0235 0328084 251.2811 264.3991 13.49730229925961"}}, "geometry": {"type": "Point", "coordinates": [135.6759109553181, -64.46344272595954]}}, {"type": "Feature", "properties": {"norad_id": 30162, "name": "FENGYUN 1C DEB", "group": "fengyun-1c-debris", "lat": 72.6638132693983, "lon": -100.79895138450983, "alt_km": 1183.2693093388616, "timestamp": "2025-12-16T21:38:57.448757+00:00", "meta": {"OBJECT_NAME": "FENGYUN 1C DEB", "OBJECT_ID": "1999-025TT", "EPOCH": "2025-12-16T03:31:14.281248", "MEAN_MOTION": 13.53413371, "ECCENTRICITY": 0.03137466, "INCLINATION": 99.4889, "RA_OF_ASC_NODE": 46.0803, "ARG_OF_PERICENTER": 340.9479, "MEAN_ANOMALY": 42.1952, "EPHEMERIS_TYPE": 0, "CLASSIFICATION_TYPE": "U", "NORAD_CAT_ID": 30162, "ELEMENT_SET_NO": 999, "REV_AT_EPOCH": 92707, "BSTAR": 0.0021990235, "MEAN_MOTION_DOT": 1.974e-05, "MEAN_MOTION_DDOT": 0}, "tle": {"line1": "1 30162U 99025TT  25350.14669307  .00001974  00000+0  21990-2 0  9991", "line2": "2 30162  99.4889  46.0803 0313746 340.9479  42.1952 13.53413371927071"}}, "geometry": {"type": "Point", "coordinates": [-100.79895138450983, 72.6638132693983]}}, {"type": "Feature", "properties": {"norad_id": 30163, "name": "FENGYUN 1C DEB", "group": "fengyun-1c-debris", "lat": -74.54841211056973, "lon": -108.23053219553498, "alt_km": 888.6807144397062, "timestamp": "2025-12-16T21:38:57.448812+00:00", "meta": {"OBJECT_NAME": "FENGYUN 1C DEB", "OBJECT_ID": "1999-025TU", "EPOCH": "2025-12-15T21:40:24.370176", "MEAN_MOTION": 13.38791955, "ECCENTRICITY": 0.03737225, "INCLINATION": 98.7006, "RA_OF_ASC_NODE": 104.5501, "ARG_OF_PERICENTER": 224.5409, "MEAN_ANOMALY": 257.9153, "EPHEMERIS_TYPE": 0, "CLASSIFICATION_TYPE": "U", "NORAD_CAT_ID": 30163, "ELEMENT_SET_NO": 999, "REV_AT_EPOCH": 91987, "BSTAR": 0.0017764845, "MEAN_MOTION_DOT": 1.387e-05, "MEAN_MOTION_DDOT": 0}, "tle": {"line1": "1 30163U 99025TU  25349.90305984  .00001387  00000+0  17765-2 0  9995", "line2": "2 30163  98.7006 104.5501 0373722 224.5409 257.9153 13.38791955919878"}}, "geometry": {"type": "Point", "coordinates": [-108.23053219553498, -74.54841211056973]}}, {"type": "Feature", "properties": {"norad_id": 30167, "name": "FENGYUN 1C DEB", "group": "fengyun-1c-debris", "lat": 42.93006600469499, "lon": 67.88305304460769, "alt_km": 740.2715602617081, "timestamp": "2025-12-16T21:38:57.448843+00:00", "meta": {"OBJECT_NAME": "FENGYUN 1C DEB", "OBJECT_ID": "1999-025TY", "EPOCH": "2025-12-16T05:07:16.870944", "MEAN_MOTION": 14.4855575, "ECCENTRICITY": 0.01441873, "INCLINATION": 98.9682, "RA_OF_ASC_NODE": 75.5994, "ARG_OF_PERICENTER": 144.1176, "MEAN_ANOMALY": 272.0077, "EPHEMERIS_TYPE": 0, "CLASSIFICATION_TYPE": "U", "NORAD_CAT_ID": 30167, "ELEMENT_SET_NO": 999, "REV_AT_EPOCH": 99409, "BSTAR": 0.00037284141, "MEAN_MOTION_DOT": 1.542e-05, "MEAN_MOTION_DDOT": 0}, "tle": {"line1": "1 30167U 99025TY  25350.21338971  .00001542  00000+0  37284-3 0  9999", "line2": "2 30167  98.9682  75.5994 0144187 144.1176 272.0077 14.48555750994099"}}, "geometry": {"type": "Point", "coordinates": [67.88305304460769, 42.93006600469499]}}, {"type": "Feature", "properties": {"norad_id": 30168, "name": "FENGYUN 1C DEB", "group": "fengyun-1c-debris", "lat": -0.760073112791266, "lon": -117.31654457908785, "alt_km": 663.9285309631796, "timestamp": "2025-12-16T21:38:57.448857+00:00", "meta": {"OBJECT_NAME": "FENGYUN 1C DEB", "OBJECT_ID": "1999-025TZ", "EPOCH": "2025-12-16T04:17:55.492800", "MEAN_MOTION": 14.52929413, "ECCENTRICITY": 0.01005384, "INCLINATION": 97.3909, "RA_OF_ASC_NODE": 62.1445, "ARG_OF_PERICENTER": 143.3041, "MEAN_ANOMALY": 217.5098, "EPHEMERIS_TYPE": 0, "CLASSIFICATION_TYPE": "U", "NORAD_CAT_ID": 30168, "ELEMENT_SET_NO": 999, "REV_AT_EPOCH": 98361, "BSTAR": 0.0012886816, "MEAN_MOTION_DOT": 5.638e-05, "MEAN_MOTION_DDOT": 0}, "tle": {"line1": "1 30168U 99025TZ  25350.17911450  .00005638  00000+0  12887-2 0  9995", "line2": "2 30168  97.3909  62.1445 0100538 143.3041 217.5098 14.52929413983611"}}, "geometry": {"type": "Point", "coordinates": [-117.31654457908785, -0.760073112791266]}}, {"type": "Feature", "properties": {"norad_id": 30169, "name": "FENGYUN 1C DEB", "group": "fengyun-1c-debris", "lat": 74.02228006351397, "lon": 29.57562464120649, "alt_km": 802.1623894643653, "timestamp": "2025-12-16T21:38:57.448869+00:00", "meta": {"OBJECT_NAME": "FENGYUN 1C DEB", "OBJECT_ID": "1999-025UA", "EPOCH": "2025-12-16T05:08:09.085056", "MEAN_MOTION": 14.58197836, "ECCENTRICITY": 0.02130867, "INCLINATION": 98.3367, "RA_OF_ASC_NODE": 59.6911, "ARG_OF_PERICENTER": 216.3113, "MEAN_ANOMALY": 211.8312, "EPHEMERIS_TYPE": 0, "CLASSIFICATION_TYPE": "U", "NORAD_CAT_ID": 30169, "ELEMENT_SET_NO": 999, "REV_AT_EPOCH": 97774, "BSTAR": 0.001893896, "MEAN_MOTION_DOT": 0.00011929, "MEAN_MOTION_DDOT": 0}, "tle": {"line1": "1 30169U 99025UA  25350.21399404  .00011929  00000+0  18939-2 0  9994", "line2": "2 30169  98.3367  59.6911 0213086 216.3113 211.8312 14.58197836977749"}}, "geometry": {"type": "Point", "coordinates": [29.57562464120649, 74.02228006351397]}}, {"type": "Feature", "properties": {"norad_id": 30170, "name": "FENGYUN 1C DEB", "group": "fengyun-1c-debris", "lat": -57.67123440059937, "lon": -7.949122999674363, "alt_km": 855.6526587558037, "timestamp": "2025-12-16T21:38:57.448880+00:00", "meta": {"OBJECT_NAME": "FENGYUN 1C DEB", "OBJECT_ID": "1999-025UB", "EPOCH": "2025-12-15T10:39:07.850304", "MEAN_MOTION": 14.00311687, "ECCENTRICITY": 0.00769669, "INCLINATION": 98.849, "RA_OF_ASC_NODE": 336.39, "ARG_OF_PERICENTER": 267.0592, "MEAN_ANOMALY": 246.6972, "EPHEMERIS_TYPE": 0, "CLASSIFICATION_TYPE": "U", "NORAD_CAT_ID": 30170, "ELEMENT_SET_NO": 999, "REV_AT_EPOCH": 96453, "BSTAR": 0.00045426988, "MEAN_MOTION_DOT": 6.46e-06, "MEAN_MOTION_DDOT": 0}, "tle": {"line1": "1 30170U 99025UB  25349.44384086  .00000646  00000+0  45427-3 0  9996", "line2": "2 30170  98.8490 336.3900 0076966 267.0592 246.6972 14.00311687964534"}}, "geometry": {"type": "Point", "coordinates": [-7.949122999674363, -57.67123440059937]}}, {"type": "Feature", "properties": {"norad_id": 30171, "name": "FENGYUN 1C DEB", "group": "fengyun-1c-debris", "lat": 68.4998263333099, "lon": 50.27418758581658, "alt_km": 1008.3572438848505, "timestamp": "2025-12-16T21:38:57.448891+00:00", "meta": {"OBJECT_NAME": "FENGYUN 1C DEB", "OBJECT_ID": "1999-025UC", "EPOCH": "2025-12-16T03:55:07.824000", "MEAN_MOTION": 13.96860724, "ECCENTRICITY": 0.01843442, "INCLINATION": 98.3979, "RA_OF_ASC_NODE": 207.574, "ARG_OF_PERICENTER": 257.7598, "MEAN_ANOMALY": 100.287, "EPHEMERIS_TYPE": 0, "CLASSIFICATION_TYPE": "U", "NORAD_CAT_ID": 30171, "ELEMENT_SET_NO": 999, "REV_AT_EPOCH": 96318, "BSTAR": 0.000260051, "MEAN_MOTION_DOT": 3.77e-06, "MEAN_MOTION_DDOT": 0}, "tle": {"line1": "1 30171U 99025UC  25350.16328500  .00000377  00000+0  26005-3 0  9999", "line2": "2 30171  98.3979 207.5740 0184344 257.7598 100.2870 13.96860724963182"}}, "geometry": {"type": "Point", "coordinates": [50.27418758581658, 68.4998263333099]}}, {"type": "Feature", "properties": {"norad_id": 30172, "name": "FENGYUN 1C DEB", "group": "fengyun-1c-debris", "lat": -5.10085172975775, "lon": -29.068008074844084, "alt_km": 902.2856257469311, "timestamp": "2025-12-16T21:38:57.448901+00:00", "meta": {"OBJECT_NAME": "FENGYUN 1C DEB", "OBJECT_ID": "1999-025UD", "EPOCH": "2025-12-15T22:08:10.714272", "MEAN_MOTION": 14.12480983, "ECCENTRICITY": 0.00687009, "INCLINATION": 99.2346, "RA_OF_ASC_NODE": 329.0907, "ARG_OF_PERICENTER": 193.0381, "MEAN_ANOMALY": 222.6922, "EPHEMERIS_TYPE": 0, "CLASSIFICATION_TYPE": "U", "NORAD_CAT_ID": 30172, "ELEMENT_SET_NO": 999, "REV_AT_EPOCH": 96562, "BSTAR": 0.0010215306, "MEAN_MOTION_DOT": 1.882e-05, "MEAN_MOTION_DDOT": 0}, "tle": {"line1": "1 30172U 99025UD  25349.92234623  .00001882  00000+0  10215-2 0  9991", "line2": "2 30172  99.2346 329.0907 0068700 193.0381 222.6922 14.12480983965627"}}, "geometry": {"type": "Point", "coordinates": [-29.068008074844084, -5.10085172975775]}}]}